{
    "links": {
        "self": "http://www.neowsapp.com/rest/v1/neo/3883114?api_key=iIulBulltgU6a56xZRHN4H3l9WmuAYTsLGpBGhQ2"
    },
    "id": "3883114",
    "neo_reference_id": "3883114",
    "name": "(2019 UP8)",
    "designation": "2019 UP8",
    "nasa_jpl_url": "http://ssd.jpl.nasa.gov/sbdb.cgi?sstr=3883114",
    "absolute_magnitude_h": 27.0,
    "estimated_diameter": {
        "kilometers": {
            "estimated_diameter_min": 0.0105816886,
            "estimated_diameter_max": 0.023661375
        },
        "meters": {
            "estimated_diameter_min": 10.5816885933,
            "estimated_diameter_max": 23.6613750114
        },
        "miles": {
            "estimated_diameter_min": 0.0065751544,
            "estimated_diameter_max": 0.0147024923
        },
        "feet": {
            "estimated_diameter_min": 34.7168272045,
            "estimated_diameter_max": 77.6291855923
        }
    },
    "is_potentially_hazardous_asteroid": false,
    "close_approach_data": [
        {
            "close_approach_date": "2019-10-20",
            "close_approach_date_full": "2019-Oct-20 21:22",
            "epoch_date_close_approach": 1571606520000,
            "relative_velocity": {
                "kilometers_per_second": "10.1692498175",
                "kilometers_per_hour": "36609.2993428769",
                "miles_per_hour": "22747.5949166892"
            },
            "miss_distance": {
                "astronomical": "0.0078988885",
                "lunar": "3.0726676265",
                "kilometers": "1181656.894967495",
                "miles": "734247.547021631"
            },
            "orbiting_body": "Earth"
        },
        {
            "close_approach_date": "2019-10-21",
            "close_approach_date_full": "2019-Oct-21 02:09",
            "epoch_date_close_approach": 1571623740000,
            "relative_velocity": {
                "kilometers_per_second": "10.9604980832",
                "kilometers_per_hour": "39457.7930996053",
                "miles_per_hour": "24517.5381623631"
            },
            "miss_distance": {
                "astronomical": "0.0071200174",
                "lunar": "2.7696867686",
                "kilometers": "1065139.437402938",
                "miles": "661846.9561510244"
            },
            "orbiting_body": "Moon"
        },
        {
            "close_approach_date": "2029-11-06",
            "close_approach_date_full": "2029-Nov-06 08:01",
            "epoch_date_close_approach": 1888646460000,
            "relative_velocity": {
                "kilometers_per_second": "14.8836496803",
                "kilometers_per_hour": "53581.1388490696",
                "miles_per_hour": "33293.2359698566"
            },
            "miss_distance": {
                "astronomical": "0.1666420841",
                "lunar": "64.8237707149",
                "kilometers": "24929300.833720867",
                "miles": "15490349.2410352846"
            },
            "orbiting_body": "Earth"
        }
    ],
    "orbital_data": {
        "orbit_id": "3",
        "orbit_determination_date": "2020-01-14 05:03:50",
        "first_observation_date": "2019-10-24",
        "last_observation_date": "2019-11-03",
        "data_arc_in_days": 10,
        "observations_used": 16,
        "orbit_uncertainty": "8",
        "minimum_orbit_intersection": ".00722342",
        "jupiter_tisserand_invariant": "3.849",
        "epoch_osculation": "2458781.5",
        "eccentricity": ".4899615492366157",
        "semi_major_axis": "1.845136673459036",
        "inclination": "7.844860386573401",
        "ascending_node_longitude": "209.9643465143769",
        "orbital_period": "915.4639315510597",
        "perihelion_distance": ".941090650377751",
        "perihelion_argument": "142.7703402421806",
        "aphelion_distance": "2.74918269654032",
        "perihelion_time": "2458750.285690950268",
        "mean_anomaly": "12.27481593825827",
        "mean_motion": ".3932432372185939",
        "equinox": "J2000",
        "orbit_class": {
            "orbit_class_type": "APO",
            "orbit_class_description": "Near-Earth asteroid orbits which cross the Earth’s orbit similar to that of 1862 Apollo",
            "orbit_class_range": "a (semi-major axis) > 1.0 AU; q (perihelion) < 1.017 AU"
        }
    },
    "is_sentry_object": false
}